{
    "links": {
        "self": "http://www.neowsapp.com/rest/v1/neo/3653257?api_key=iIulBulltgU6a56xZRHN4H3l9WmuAYTsLGpBGhQ2"
    },
    "id": "3653257",
    "neo_reference_id": "3653257",
    "name": "(2013 UP5)",
    "designation": "2013 UP5",
    "nasa_jpl_url": "http://ssd.jpl.nasa.gov/sbdb.cgi?sstr=3653257",
    "absolute_magnitude_h": 23.6,
    "estimated_diameter": {
        "kilometers": {
            "estimated_diameter_min": 0.0506471459,
            "estimated_diameter_max": 0.1132504611
        },
        "meters": {
            "estimated_diameter_min": 50.6471458835,
            "estimated_diameter_max": 113.2504610618
        },
        "miles": {
            "estimated_diameter_min": 0.0314706677,
            "estimated_diameter_max": 0.0703705522
        },
        "feet": {
            "estimated_diameter_min": 166.1651821003,
            "estimated_diameter_max": 371.5566426699
        }
    },
    "is_potentially_hazardous_asteroid": false,
    "close_approach_data": [
        {
            "close_approach_date": "2013-10-26",
            "close_approach_date_full": "2013-Oct-26 20:10",
            "epoch_date_close_approach": 1382818200000,
            "relative_velocity": {
                "kilometers_per_second": "8.1599892433",
                "kilometers_per_hour": "29375.9612758831",
                "miles_per_hour": "18253.0799383397"
            },
            "miss_distance": {
                "astronomical": "0.138952078",
                "lunar": "54.052358342",
                "kilometers": "20786934.90087386",
                "miles": "12916402.405864868"
            },
            "orbiting_body": "Earth"
        }
    ],
    "orbital_data": {
        "orbit_id": "6",
        "orbit_determination_date": "2017-04-06 08:43:57",
        "first_observation_date": "2013-10-26",
        "last_observation_date": "2013-11-06",
        "data_arc_in_days": 11,
        "observations_used": 23,
        "orbit_uncertainty": "8",
        "minimum_orbit_intersection": ".12969",
        "jupiter_tisserand_invariant": "4.126",
        "epoch_osculation": "2456594.5",
        "eccentricity": ".334848872844945",
        "semi_major_axis": "1.686597665274397",
        "inclination": "14.02244729721824",
        "ascending_node_longitude": "32.58559143277575",
        "orbital_period": "800.0473095506539",
        "perihelion_distance": "1.121842338114349",
        "perihelion_argument": "7.305341045550514",
        "aphelion_distance": "2.251352992434444",
        "perihelion_time": "2456596.172486979204",
        "mean_anomaly": "359.247425364318",
        "mean_motion": ".449973389951394",
        "equinox": "J2000",
        "orbit_class": {
            "orbit_class_type": "AMO",
            "orbit_class_description": "Near-Earth asteroid orbits similar to that of 1221 Amor",
            "orbit_class_range": "1.017 AU < q (perihelion) < 1.3 AU"
        }
    },
    "is_sentry_object": false
}